NORAD_CAT_ID,OBJECT_NAME,OBJECT_TYPE,EPOCH,MEAN_MOTION,ECCENTRICITY,INCLINATION,RA_OF_ASC_NODE,ARG_OF_PERICENTER,MEAN_ANOMALY,BSTAR,MEAN_MOTION_DOT,MEAN_MOTION_DDOT,TLE_LINE0,TLE_LINE1,TLE_LINE2,SEMIMAJOR_AXIS,PERIOD,APOGEE,PERIGEE,DECAYED
55643.0,STARLINK-5483,PAYLOAD,2023-04-16 18:30:43,15.69928667,0.0003059,69.9971,346.865,266.2528,93.8318,4.9378e-06,3.81e-06,0.0,0 STARLINK-5483,1 55643U 23021R   23106.77134236  .00000381  00000-0  49378-5 0  9994,2 55643  69.9971 346.8650 0003059 266.2528  93.8318 15.69928667  9646,6737.238,91.724,361.164,357.042,0.0
55643.0,STARLINK-5483,PAYLOAD,2023-04-17 02:09:29,15.69931385,0.0003336,69.9968,345.9682,265.1219,94.9596,7.2556e-06,6.6e-06,0.0,0 STARLINK-5483,1 55643U 23021R   23107.08992228  .00000660  00000-0  72556-5 0  9996,2 55643  69.9968 345.9682 0003336 265.1219  94.9596 15.69931385 10003,6737.23,91.724,361.343,356.848,0.0
55643.0,STARLINK-5483,PAYLOAD,2023-04-17 22:02:15,15.69930227,0.0003309,69.997,343.6384,263.0438,97.0381,1.9014e-05,2.075e-05,0.0,0 STARLINK-5483,1 55643U 23021R   23107.91823977  .00002075  00000-0  19014-4 0  9993,2 55643  69.9970 343.6384 0003309 263.0438  97.0381 15.69930227 10134,6737.234,91.724,361.328,356.869,0.0
55643.0,STARLINK-5483,PAYLOAD,2023-04-18 01:05:46,15.69929281,0.0003601,69.9989,343.2809,267.8826,92.1957,1.4723e-05,1.558e-05,0.0,0 STARLINK-5483,1 55643U 23021R   23108.04567353  .00001558  00000-0  14723-4 0  9998,2 55643  69.9989 343.2809 0003601 267.8826  92.1957 15.69929281 10155,6737.236,91.724,361.527,356.675,0.0
55643.0,STARLINK-5483,PAYLOAD,2023-04-18 17:55:03,15.69918935,0.0003277,69.998,341.3092,256.1791,103.904,2.8922e-06,1.35e-06,0.0,0 STARLINK-5483,1 55643U 23021R   23108.74656606  .00000135  00000-0  28922-5 0  9992,2 55643  69.9980 341.3092 0003277 256.1791 103.9040 15.69918935 10260,6737.266,91.724,361.339,356.923,0.0
55643.0,STARLINK-5483,PAYLOAD,2023-04-19 01:33:47,15.69937024,0.0003502,69.9962,340.414,268.7947,91.2847,2.1065e-05,2.322e-05,0.0,0 STARLINK-5483,1 55643U 23021R   23109.06513487  .00002322  00000-0  21065-4 0  9997,2 55643  69.9962 340.4140 0003502 268.7947  91.2847 15.69937024 10003,6737.214,91.723,361.439,356.72,0.0
55643.0,STARLINK-5483,PAYLOAD,2023-04-19 16:51:19,15.69926413,0.0003623,69.9962,338.6224,265.4935,94.5847,-5.7339e-06,-9.02e-06,0.0,0 STARLINK-5483,1 55643U 23021R   23109.70231348 -.00000902  00000-0 -57339-5 0  9999,2 55643  69.9962 338.6224 0003623 265.4935  94.5847 15.69926413 10411,6737.245,91.724,361.55,356.669,0.0
55643.0,STARLINK-5483,PAYLOAD,2023-04-20 00:30:04,15.69932724,0.000319,69.9974,337.7262,256.8607,103.2233,1.0503e-05,1.051e-05,0.0,0 STARLINK-5483,1 55643U 23021R   23110.02088894  .00001051  00000-0  10503-4 0  9997,2 55643  69.9974 337.7262 0003190 256.8607 103.2233 15.69932724 10155,6737.226,91.724,361.241,356.942,0.0
55643.0,STARLINK-5483,PAYLOAD,2023-04-20 15:47:37,15.69911208,0.0003676,69.9976,335.9353,259.2881,100.7901,-7.6916e-06,-1.137e-05,0.0,0 STARLINK-5483,1 55643U 23021R   23110.65807568 -.00001137  00000-0 -76916-5 0  9991,2 55643  69.9976 335.9353 0003676 259.2881 100.7901 15.69911208 10561,6737.288,91.725,361.63,356.676,0.0
55643.0,STARLINK-5483,PAYLOAD,2023-04-21 08:36:51,15.699342,0.0004185,69.9966,333.9642,260.2411,99.8312,2.9971e-05,3.394e-05,0.0,0 STARLINK-5483,1 55643U 23021R   23111.35893446  .00003394  00000-0  29971-4 0  9992,2 55643  69.9966 333.9642 0004185 260.2411  99.8312 15.69934200 10365,6737.222,91.724,361.907,356.268,0.0
55643.0,STARLINK-5483,PAYLOAD,2023-04-21 20:50:53,15.69933714,0.0003224,69.9964,332.532,256.3139,103.7697,5.8221e-06,4.88e-06,0.0,0 STARLINK-5483,1 55643U 23021R   23111.86867454  .00000488  00000-0  58221-5 0  9990,2 55643  69.9964 332.5320 0003224 256.3139 103.7697 15.69933714 10446,6737.224,91.724,361.261,356.917,0.0
55643.0,STARLINK-5483,PAYLOAD,2023-04-22 01:26:08,15.69928469,0.0003424,69.9964,331.994,256.0589,104.0226,1.4394e-05,1.519e-05,0.0,0 STARLINK-5483,1 55643U 23021R   23112.05982618  .00001519  00000-0  14394-4 0  9990,2 55643  69.9964 331.9940 0003424 256.0589 104.0226 15.69928469 10785,6737.239,91.724,361.41,356.797,0.0
55643.0,STARLINK-5483,PAYLOAD,2023-04-22 18:15:25,15.69916004,0.0003422,69.9978,330.0229,252.1942,107.888,2.0632e-05,2.268e-05,0.0,0 STARLINK-5483,1 55643U 23021R   23112.76071758  .00002268  00000-0  20632-4 0  9996,2 55643  69.9978 330.0229 0003422 252.1942 107.8880 15.69916004 10585,6737.274,91.725,361.445,356.834,0.0
55643.0,STARLINK-5483,PAYLOAD,2023-04-23 14:08:12,15.69921509,0.000356,69.9981,327.6943,258.3998,101.6798,9.1209e-06,8.84e-06,0.0,0 STARLINK-5483,1 55643U 23021R   23113.58903356  .00000884  00000-0  91209-5 0  9996,2 55643  69.9981 327.6943 0003560 258.3998 101.6798 15.69921509 11022,6737.259,91.724,361.522,356.725,0.0
55643.0,STARLINK-5483,PAYLOAD,2023-04-23 17:11:42,15.69928254,0.0003451,69.9985,327.3359,257.3024,102.7786,1.5661e-05,1.671e-05,0.0,0 STARLINK-5483,1 55643U 23021R   23113.71646308  .00001671  00000-0  15661-4 0  9994,2 55643  69.9985 327.3359 0003451 257.3024 102.7786 15.69928254 10732,6737.239,91.724,361.429,356.779,0.0
55643.0,STARLINK-5483,PAYLOAD,2023-04-24 14:36:13,15.69935201,0.0002921,69.999,324.8275,254.735,105.3523,3.0514e-05,3.459e-05,0.0,0 STARLINK-5483,1 55643U 23021R   23114.60848411  .00003459  00000-0  30514-4 0  9992,2 55643  69.9990 324.8275 0002921 254.7350 105.3523 15.69935201 11189,6737.219,91.724,361.052,357.116,0.0
55643.0,STARLINK-5483,PAYLOAD,2023-04-25 13:32:34,15.69888878,0.0003402,69.9994,322.1405,264.803,95.2777,-3.6488e-05,-4.591e-05,0.0,0 STARLINK-5483,1 55643U 23021R   23115.56429163 -.00004591  00000-0 -36488-4 0  9993,2 55643  69.9994 322.1405 0003402 264.8030  95.2777 15.69888878 11333,6737.352,91.726,361.509,356.925,0.0
55643.0,STARLINK-5483,PAYLOAD,2023-04-26 01:46:49,15.69737589,0.0002154,69.999,320.7093,267.7321,92.3628,-0.00019588,-0.00023513,0.0,0 STARLINK-5483,1 55643U 23021R   23116.07418796 -.00023513  00000-0 -19588-3 0  9996,2 55643  69.9990 320.7093 0002154 267.7321  92.3628 15.69737589 11418,6737.785,91.735,361.101,358.198,0.0
55643.0,STARLINK-5483,PAYLOAD,2023-04-26 21:39:17,15.69941213,0.0003346,70.0008,318.3826,263.9079,96.1736,4.3778e-05,5.058e-05,0.0,0 STARLINK-5483,1 55643U 23021R   23116.90228793  .00005058  00000-0  43778-4 0  9995,2 55643  70.0008 318.3826 0003346 263.9079  96.1736 15.69941213 11547,6737.202,91.723,361.321,356.813,0.0
55643.0,STARLINK-5483,PAYLOAD,2023-04-27 12:56:51,15.69933213,0.0003133,69.9993,316.5894,262.5232,97.5608,-1.6586e-05,-2.207e-05,0.0,0 STARLINK-5483,1 55643U 23021R   23117.53948045 -.00002207  00000-0 -16586-4 0  9996,2 55643  69.9993 316.5894 0003133 262.5232  97.5608 15.69933213 11647,6737.225,91.724,361.201,356.979,0.0
55643.0,STARLINK-5483,PAYLOAD,2023-04-27 20:35:36,15.69934353,0.0002611,70.0018,315.6949,246.4128,113.6794,-1.4677e-05,-1.977e-05,0.0,0 STARLINK-5483,1 55643U 23021R   23117.85806002 -.00001977  00000-0 -14677-4 0  9999,2 55643  70.0018 315.6949 0002611 246.4128 113.6794 15.69934353 11387,6737.222,91.724,360.846,357.328,0.0
55643.0,STARLINK-5483,PAYLOAD,2023-04-28 13:24:52,15.69934916,0.0003016,70.0003,313.7227,264.962,95.1232,-1.8889e-05,-2.484e-05,0.0,0 STARLINK-5483,1 55643U 23021R   23118.55894003 -.00002484  00000-0 -18889-4 0  9998,2 55643  70.0003 313.7227 0003016 264.9620  95.1232 15.69934916 11804,6737.22,91.724,361.117,357.053,0.0
55643.0,STARLINK-5483,PAYLOAD,2023-04-28 21:03:37,15.69942587,0.0003258,70.0,312.8286,265.3685,94.7138,-6.123e-06,-9.49e-06,0.0,0 STARLINK-5483,1 55643U 23021R   23118.87751247 -.00000949  00000-0 -61230-5 0  9998,2 55643  70.0000 312.8286 0003258 265.3685  94.7138 15.69942587 11544,6737.198,91.723,361.258,356.868,0.0
55643.0,STARLINK-5483,PAYLOAD,2023-04-29 06:14:08,15.69927974,0.0003611,69.9983,311.751,270.6366,89.4415,-1.8478e-05,-2.435e-05,0.0,0 STARLINK-5483,1 55643U 23021R   23119.25982191 -.00002435  00000-0 -18478-4 0  9992,2 55643  69.9983 311.7510 0003611 270.6366  89.4415 15.69927974 11910,6737.24,91.724,361.538,356.672,0.0
55643.0,STARLINK-5483,PAYLOAD,2023-04-29 13:52:54,15.69916868,0.0003394,69.9977,310.8549,268.112,91.9687,9.3669e-06,9.13e-06,0.0,0 STARLINK-5483,1 55643U 23021R   23119.57840854  .00000913  00000-0  93669-5 0  9999,2 55643  69.9977 310.8549 0003394 268.1120  91.9687 15.69916868 11653,6737.272,91.725,361.423,356.85,0.0
55643.0,STARLINK-5483,PAYLOAD,2023-05-01 01:03:12,15.69920285,0.0003373,69.9981,306.733,271.3813,88.6996,1.8716e-06,1.2e-07,0.0,0 STARLINK-5483,1 55643U 23021R   23121.04389448  .00000012  00000-0  18716-5 0  9991,2 55643  69.9981 306.7330 0003373 271.3813  88.6996 15.69920285 11881,6737.262,91.724,361.4,356.855,0.0
55643.0,STARLINK-5483,PAYLOAD,2023-05-01 13:17:13,15.69920051,0.0004055,69.9968,305.3018,267.3202,92.7529,1.4588e-05,1.541e-05,0.0,0 STARLINK-5483,1 55643U 23021R   23121.55362550  .00001541  00000-0  14588-4 0  9992,2 55643  69.9968 305.3018 0004055 267.3202  92.7529 15.69920051 12272,6737.263,91.724,361.86,356.396,0.0
55643.0,STARLINK-5483,PAYLOAD,2023-05-01 20:55:58,15.69932374,0.0003873,69.9973,304.4048,267.2633,92.812,1.3663e-05,1.431e-05,0.0,0 STARLINK-5483,1 55643U 23021R   23121.87220161  .00001431  00000-0  13663-4 0  9999,2 55643  69.9973 304.4048 0003873 267.2633  92.8120 15.69932374 12320,6737.227,91.724,361.702,356.483,0.0
55643.0,STARLINK-5483,PAYLOAD,2023-05-01 22:27:43,15.69931274,0.0003599,69.9969,304.2254,262.7475,97.3312,1.0383e-05,1.036e-05,0.0,0 STARLINK-5483,1 55643U 23021R   23121.93591911  .00001036  00000-0  10383-4 0  9997,2 55643  69.9969 304.2254 0003599 262.7475  97.3312 15.69931274 12029,6737.231,91.724,361.52,356.671,0.0
55643.0,STARLINK-5483,PAYLOAD,2023-05-02 13:45:15,15.6992293,0.0003874,69.9973,302.4338,269.3614,90.7138,6.6138e-06,5.82e-06,0.0,0 STARLINK-5483,1 55643U 23021R   23122.57309292  .00000582  00000-0  66138-5 0  9992,2 55643  69.9973 302.4338 0003874 269.3614  90.7138 15.69922930 12124,6737.254,91.724,361.73,356.509,0.0
